STARLINK-36438          
1 67625U 26020J   26040.83335647 -.00145863  00000+0 -69556-3 0  9999
2 67625  42.9995 311.5202 0001499 265.7733 290.0268 15.82208580  2914
STARLINK-36436          
1 67626U 26020K   26040.83335647 -.00052759  00000+0 -24936-3 0  9994
2 67626  42.9989 311.5007 0001579 273.4503 290.1825 15.82032137  2914
STARLINK-36502          
1 67627U 26020L   26040.83335647  .00017165  00000+0  83894-4 0  9994
2 67627  42.9990 311.5114 0001704 253.4452 306.0050 15.82013930  2914
STARLINK-36532          
1 67628U 26020M   26040.83335647 -.00015870  00000+0 -72919-4 0  9994
2 67628  42.9988 311.4828 0002404 272.1275 298.5298 15.82026610  2910
STARLINK-36367          
1 67629U 26020N   26040.83335647  .00034661  00000+0  16667-3 0  9999
2 67629  42.9991 311.4896 0001637 256.1276 311.7314 15.81990735  2914
STARLINK-36416          
1 67630U 26020P   26040.83335647 -.00787074  00000+0 -40350-2 0  9991
2 67630  42.9991 311.4759 0001338 261.0800 312.3577 15.82291873  2916
STARLINK-36527          
1 67631U 26020Q   26040.83335647 -.00053321  00000+0 -25189-3 0  9997
2 67631  42.9990 311.4675 0002094 259.7177 317.1579 15.82044272  2918
STARLINK-36633          
1 67632U 26020R   26040.83335647 -.00069632  00000+0 -33012-3 0  9994
2 67632  42.9991 311.4566 0001596 254.7259 326.3446 15.82059795  2912
STARLINK-36637          
1 67633U 26020S   26040.83335647 -.00382969  00000+0 -18848-2 0  9995
2 67633  42.9993 311.4484 0001934 250.0713 334.3872 15.82158390  2917
STARLINK-36617          
1 67634U 26020T   26040.83335647 -.00001497  00000+0 -45720-5 0  9992
2 67634  42.9992 311.4382 0002034 279.2327 309.1697 15.82023737  2911
STARLINK-36627          
1 67635U 26020U   26040.83335647  .00018669  00000+0  91008-4 0  9999
2 67635  42.9991 311.4032 0001523 262.3402 339.9539 15.82013164  2911
STARLINK-36624          
1 67636U 26020V   26040.83335647 -.00004497  00000+0 -18802-4 0  9997
2 67636  42.9992 311.4118 0001501 260.1280 338.8851 15.82051789  2914
