CCSDS_OMM_VERS = 2.0
CREATION_DATE  = 
ORIGINATOR     = 

OBJECT_NAME    = STARLINK-36438
OBJECT_ID      = 2026-020J
CENTER_NAME    = EARTH
REF_FRAME      = TEME
TIME_SYSTEM    = UTC
MEAN_ELEMENT_THEORY = SGP/SGP4

EPOCH          = 2026-02-09T20:00:01.999008
MEAN_MOTION    = 15.82208580
ECCENTRICITY   = .0001499
INCLINATION    = 42.9995
RA_OF_ASC_NODE = 311.5202
ARG_OF_PERICENTER = 265.7733
MEAN_ANOMALY   = 290.0268

EPHEMERIS_TYPE = 0
CLASSIFICATION_TYPE = U
NORAD_CAT_ID   = 67625
ELEMENT_SET_NO = 999
REV_AT_EPOCH   = 291
BSTAR          = -.69556E-3
MEAN_MOTION_DOT = -.145863E-2
MEAN_MOTION_DDOT = 0

CCSDS_OMM_VERS = 2.0
CREATION_DATE  = 
ORIGINATOR     = 

OBJECT_NAME    = STARLINK-36436
OBJECT_ID      = 2026-020K
CENTER_NAME    = EARTH
REF_FRAME      = TEME
TIME_SYSTEM    = UTC
MEAN_ELEMENT_THEORY = SGP/SGP4

EPOCH          = 2026-02-09T20:00:01.999008
MEAN_MOTION    = 15.82032137
ECCENTRICITY   = .0001579
INCLINATION    = 42.9989
RA_OF_ASC_NODE = 311.5007
ARG_OF_PERICENTER = 273.4503
MEAN_ANOMALY   = 290.1825

EPHEMERIS_TYPE = 0
CLASSIFICATION_TYPE = U
NORAD_CAT_ID   = 67626
ELEMENT_SET_NO = 999
REV_AT_EPOCH   = 291
BSTAR          = -.24936E-3
MEAN_MOTION_DOT = -.52759E-3
MEAN_MOTION_DDOT = 0

CCSDS_OMM_VERS = 2.0
CREATION_DATE  = 
ORIGINATOR     = 

OBJECT_NAME    = STARLINK-36502
OBJECT_ID      = 2026-020L
CENTER_NAME    = EARTH
REF_FRAME      = TEME
TIME_SYSTEM    = UTC
MEAN_ELEMENT_THEORY = SGP/SGP4

EPOCH          = 2026-02-09T20:00:01.999008
MEAN_MOTION    = 15.82013930
ECCENTRICITY   = .0001704
INCLINATION    = 42.9990
RA_OF_ASC_NODE = 311.5114
ARG_OF_PERICENTER = 253.4452
MEAN_ANOMALY   = 306.0050

EPHEMERIS_TYPE = 0
CLASSIFICATION_TYPE = U
NORAD_CAT_ID   = 67627
ELEMENT_SET_NO = 999
REV_AT_EPOCH   = 291
BSTAR          = .83894E-4
MEAN_MOTION_DOT = .17165E-3
MEAN_MOTION_DDOT = 0

CCSDS_OMM_VERS = 2.0
CREATION_DATE  = 
ORIGINATOR     = 

OBJECT_NAME    = STARLINK-36532
OBJECT_ID      = 2026-020M
CENTER_NAME    = EARTH
REF_FRAME      = TEME
TIME_SYSTEM    = UTC
MEAN_ELEMENT_THEORY = SGP/SGP4

EPOCH          = 2026-02-09T20:00:01.999008
MEAN_MOTION    = 15.82026610
ECCENTRICITY   = .0002404
INCLINATION    = 42.9988
RA_OF_ASC_NODE = 311.4828
ARG_OF_PERICENTER = 272.1275
MEAN_ANOMALY   = 298.5298

EPHEMERIS_TYPE = 0
CLASSIFICATION_TYPE = U
NORAD_CAT_ID   = 67628
ELEMENT_SET_NO = 999
REV_AT_EPOCH   = 291
BSTAR          = -.72919E-4
MEAN_MOTION_DOT = -.1587E-3
MEAN_MOTION_DDOT = 0

CCSDS_OMM_VERS = 2.0
CREATION_DATE  = 
ORIGINATOR     = 

OBJECT_NAME    = STARLINK-36367
OBJECT_ID      = 2026-020N
CENTER_NAME    = EARTH
REF_FRAME      = TEME
TIME_SYSTEM    = UTC
MEAN_ELEMENT_THEORY = SGP/SGP4

EPOCH          = 2026-02-09T20:00:01.999008
MEAN_MOTION    = 15.81990735
ECCENTRICITY   = .0001637
INCLINATION    = 42.9991
RA_OF_ASC_NODE = 311.4896
ARG_OF_PERICENTER = 256.1276
MEAN_ANOMALY   = 311.7314

EPHEMERIS_TYPE = 0
CLASSIFICATION_TYPE = U
NORAD_CAT_ID   = 67629
ELEMENT_SET_NO = 999
REV_AT_EPOCH   = 291
BSTAR          = .16667E-3
MEAN_MOTION_DOT = .34661E-3
MEAN_MOTION_DDOT = 0

CCSDS_OMM_VERS = 2.0
CREATION_DATE  = 
ORIGINATOR     = 

OBJECT_NAME    = STARLINK-36416
OBJECT_ID      = 2026-020P
CENTER_NAME    = EARTH
REF_FRAME      = TEME
TIME_SYSTEM    = UTC
MEAN_ELEMENT_THEORY = SGP/SGP4

EPOCH          = 2026-02-09T20:00:01.999008
MEAN_MOTION    = 15.82291873
ECCENTRICITY   = .0001338
INCLINATION    = 42.9991
RA_OF_ASC_NODE = 311.4759
ARG_OF_PERICENTER = 261.0800
MEAN_ANOMALY   = 312.3577

EPHEMERIS_TYPE = 0
CLASSIFICATION_TYPE = U
NORAD_CAT_ID   = 67630
ELEMENT_SET_NO = 999
REV_AT_EPOCH   = 291
BSTAR          = -.4035E-2
MEAN_MOTION_DOT = -.787074E-2
MEAN_MOTION_DDOT = 0

CCSDS_OMM_VERS = 2.0
CREATION_DATE  = 
ORIGINATOR     = 

OBJECT_NAME    = STARLINK-36527
OBJECT_ID      = 2026-020Q
CENTER_NAME    = EARTH
REF_FRAME      = TEME
TIME_SYSTEM    = UTC
MEAN_ELEMENT_THEORY = SGP/SGP4

EPOCH          = 2026-02-09T20:00:01.999008
MEAN_MOTION    = 15.82044272
ECCENTRICITY   = .0002094
INCLINATION    = 42.9990
RA_OF_ASC_NODE = 311.4675
ARG_OF_PERICENTER = 259.7177
MEAN_ANOMALY   = 317.1579

EPHEMERIS_TYPE = 0
CLASSIFICATION_TYPE = U
NORAD_CAT_ID   = 67631
ELEMENT_SET_NO = 999
REV_AT_EPOCH   = 291
BSTAR          = -.25189E-3
MEAN_MOTION_DOT = -.53321E-3
MEAN_MOTION_DDOT = 0

CCSDS_OMM_VERS = 2.0
CREATION_DATE  = 
ORIGINATOR     = 

OBJECT_NAME    = STARLINK-36633
OBJECT_ID      = 2026-020R
CENTER_NAME    = EARTH
REF_FRAME      = TEME
TIME_SYSTEM    = UTC
MEAN_ELEMENT_THEORY = SGP/SGP4

EPOCH          = 2026-02-09T20:00:01.999008
MEAN_MOTION    = 15.82059795
ECCENTRICITY   = .0001596
INCLINATION    = 42.9991
RA_OF_ASC_NODE = 311.4566
ARG_OF_PERICENTER = 254.7259
MEAN_ANOMALY   = 326.3446

EPHEMERIS_TYPE = 0
CLASSIFICATION_TYPE = U
NORAD_CAT_ID   = 67632
ELEMENT_SET_NO = 999
REV_AT_EPOCH   = 291
BSTAR          = -.33012E-3
MEAN_MOTION_DOT = -.69632E-3
MEAN_MOTION_DDOT = 0

CCSDS_OMM_VERS = 2.0
CREATION_DATE  = 
ORIGINATOR     = 

OBJECT_NAME    = STARLINK-36637
OBJECT_ID      = 2026-020S
CENTER_NAME    = EARTH
REF_FRAME      = TEME
TIME_SYSTEM    = UTC
MEAN_ELEMENT_THEORY = SGP/SGP4

EPOCH          = 2026-02-09T20:00:01.999008
MEAN_MOTION    = 15.82158390
ECCENTRICITY   = .0001934
INCLINATION    = 42.9993
RA_OF_ASC_NODE = 311.4484
ARG_OF_PERICENTER = 250.0713
MEAN_ANOMALY   = 334.3872

EPHEMERIS_TYPE = 0
CLASSIFICATION_TYPE = U
NORAD_CAT_ID   = 67633
ELEMENT_SET_NO = 999
REV_AT_EPOCH   = 291
BSTAR          = -.18848E-2
MEAN_MOTION_DOT = -.382969E-2
MEAN_MOTION_DDOT = 0

CCSDS_OMM_VERS = 2.0
CREATION_DATE  = 
ORIGINATOR     = 

OBJECT_NAME    = STARLINK-36617
OBJECT_ID      = 2026-020T
CENTER_NAME    = EARTH
REF_FRAME      = TEME
TIME_SYSTEM    = UTC
MEAN_ELEMENT_THEORY = SGP/SGP4

EPOCH          = 2026-02-09T20:00:01.999008
MEAN_MOTION    = 15.82023737
ECCENTRICITY   = .0002034
INCLINATION    = 42.9992
RA_OF_ASC_NODE = 311.4382
ARG_OF_PERICENTER = 279.2327
MEAN_ANOMALY   = 309.1697

EPHEMERIS_TYPE = 0
CLASSIFICATION_TYPE = U
NORAD_CAT_ID   = 67634
ELEMENT_SET_NO = 999
REV_AT_EPOCH   = 291
BSTAR          = -.4572E-5
MEAN_MOTION_DOT = -.1497E-4
MEAN_MOTION_DDOT = 0

CCSDS_OMM_VERS = 2.0
CREATION_DATE  = 
ORIGINATOR     = 

OBJECT_NAME    = STARLINK-36627
OBJECT_ID      = 2026-020U
CENTER_NAME    = EARTH
REF_FRAME      = TEME
TIME_SYSTEM    = UTC
MEAN_ELEMENT_THEORY = SGP/SGP4

EPOCH          = 2026-02-09T20:00:01.999008
MEAN_MOTION    = 15.82013164
ECCENTRICITY   = .0001523
INCLINATION    = 42.9991
RA_OF_ASC_NODE = 311.4032
ARG_OF_PERICENTER = 262.3402
MEAN_ANOMALY   = 339.9539

EPHEMERIS_TYPE = 0
CLASSIFICATION_TYPE = U
NORAD_CAT_ID   = 67635
ELEMENT_SET_NO = 999
REV_AT_EPOCH   = 291
BSTAR          = .91008E-4
MEAN_MOTION_DOT = .18669E-3
MEAN_MOTION_DDOT = 0

CCSDS_OMM_VERS = 2.0
CREATION_DATE  = 
ORIGINATOR     = 

OBJECT_NAME    = STARLINK-36624
OBJECT_ID      = 2026-020V
CENTER_NAME    = EARTH
REF_FRAME      = TEME
TIME_SYSTEM    = UTC
MEAN_ELEMENT_THEORY = SGP/SGP4

EPOCH          = 2026-02-09T20:00:01.999008
MEAN_MOTION    = 15.82051789
ECCENTRICITY   = .0001501
INCLINATION    = 42.9992
RA_OF_ASC_NODE = 311.4118
ARG_OF_PERICENTER = 260.1280
MEAN_ANOMALY   = 338.8851

EPHEMERIS_TYPE = 0
CLASSIFICATION_TYPE = U
NORAD_CAT_ID   = 67636
ELEMENT_SET_NO = 999
REV_AT_EPOCH   = 291
BSTAR          = -.18802E-4
MEAN_MOTION_DOT = -.4497E-4
MEAN_MOTION_DDOT = 0

